{"type": "FeatureCollection", "features": [{"type": "Feature", "properties": {"base_m": 0, "height_m": 150, "color": "#e2e8f0"}, "geometry": {"type": "Polygon", "coordinates": [[[-122.3491931810105, 47.6205], [-122.34920749204149, 47.620536000036], [-122.34924659050525, 47.62056235389143], [-122.3493, 47.620572000072], [-122.34935340949475, 47.62056235389143], [-122.34939250795851, 47.620536000036], [-122.3494068189895, 47.6205], [-122.34939250795851, 47.620463999964], [-122.34935340949475, 47.62043764610857], [-122.3493, 47.620427999928], [-122.34924659050525, 47.62043764610857], [-122.34920749204149, 47.620463999964], [-122.3491931810105, 47.6205]]]}}, {"type": "Feature", "properties": {"base_m": 140, "height_m": 155, "color": "#f8fafc"}, "geometry": {"type": "Polygon", "coordinates": [[[-122.34879260979987, 47.6205], [-122.34880989870169, 47.62058851620194], [-122.34886058719707, 47.620671000171], [-122.34894122094879, 47.620741830761], [-122.34904630489994, 47.62079618098428], [-122.34916867775291, 47.62083034696294], [-122.3493, 47.620842000342], [-122.34943132224709, 47.62083034696294], [-122.34955369510006, 47.62079618098428], [-122.34965877905121, 47.620741830761], [-122.34973941280293, 47.620671000171], [-122.34979010129831, 47.62058851620194], [-122.34980739020013, 47.6205], [-122.34979010129831, 47.62041148379806], [-122.34973941280293, 47.620328999829], [-122.34965877905121, 47.620258169239], [-122.34955369510006, 47.62020381901572], [-122.34943132224709, 47.62016965303706], [-122.3493, 47.620157999658], [-122.34916867775291, 47.62016965303706], [-122.34904630489994, 47.62020381901572], [-122.34894122094879, 47.620258169239], [-122.34886058719707, 47.620328999829], [-122.34880989870169, 47.62041148379806], [-122.34879260979987, 47.6205]]]}}, {"type": "Feature", "properties": {"base_m": 155, "height_m": 184, "color": "#fbbf24"}, "geometry": {"type": "Polygon", "coordinates": [[[-122.34927329525263, 47.6205], [-122.34928111689204, 47.62051272793479], [-122.3493, 47.620518000018], [-122.34931888310796, 47.62051272793479], [-122.34932670474737, 47.6205], [-122.34931888310796, 47.62048727206521], [-122.3493, 47.620481999982], [-122.34928111689204, 47.62048727206521], [-122.34927329525263, 47.6205]]]}}]}